[{"OBJECT_NAME":"LYNK TOWER 6","OBJECT_ID":"2024-043AB","EPOCH":"2026-03-09T21:28:38.303328","MEAN_MOTION":15.29548678,"ECCENTRICITY":0.00097492,"INCLINATION":97.5426,"RA_OF_ASC_NODE":204.1954,"ARG_OF_PERICENTER":232.0253,"MEAN_ANOMALY":128.0107,"EPHEMERIS_TYPE":0,"CLASSIFICATION_TYPE":"U","NORAD_CAT_ID":59123,"ELEMENT_SET_NO":999,"REV_AT_EPOCH":11184,"BSTAR":0.00040142146,"MEAN_MOTION_DOT":0.0001144,"MEAN_MOTION_DDOT":0},{"OBJECT_NAME":"STARLINK-31785","OBJECT_ID":"2024-118U","EPOCH":"2026-03-09T22:13:33.287808","MEAN_MOTION":15.30165683,"ECCENTRICITY":7.758e-5,"INCLINATION":53.1605,"RA_OF_ASC_NODE":25.5486,"ARG_OF_PERICENTER":114.8421,"MEAN_ANOMALY":245.266,"EPHEMERIS_TYPE":0,"CLASSIFICATION_TYPE":"U","NORAD_CAT_ID":60131,"ELEMENT_SET_NO":999,"REV_AT_EPOCH":9573,"BSTAR":-4.4626514e-5,"MEAN_MOTION_DOT":-1.679e-5,"MEAN_MOTION_DDOT":0}]
